STARLINK-34253          
1 64685U 25139X   26068.43911151  .00049852  00000+0  16815-2 0  9996
2 64685  53.1589 128.3519 0002255  38.4064 321.7097 15.30248133 40249
2025-313BD              
1 67299U 25313BD  26068.62968741  .00081010  00000+0  27634-2 0  9995
2 67299  97.3970 145.2850 0007287 333.4514  26.6352 15.30002360 10838
