[{"OBJECT_NAME":"STARLINK-34253","OBJECT_ID":"2025-139X","EPOCH":"2026-03-09T10:32:19.234464","MEAN_MOTION":15.30248133,"ECCENTRICITY":0.00022558,"INCLINATION":53.1589,"RA_OF_ASC_NODE":128.3519,"ARG_OF_PERICENTER":38.4064,"MEAN_ANOMALY":321.7097,"EPHEMERIS_TYPE":0,"CLASSIFICATION_TYPE":"U","NORAD_CAT_ID":64685,"ELEMENT_SET_NO":999,"REV_AT_EPOCH":4024,"BSTAR":0.0016814642,"MEAN_MOTION_DOT":0.00049852,"MEAN_MOTION_DDOT":0},{"OBJECT_NAME":"OBJECT BD","OBJECT_ID":"2025-313BD","EPOCH":"2026-03-09T15:06:44.992224","MEAN_MOTION":15.3000236,"ECCENTRICITY":0.00072867,"INCLINATION":97.397,"RA_OF_ASC_NODE":145.285,"ARG_OF_PERICENTER":333.4514,"MEAN_ANOMALY":26.6352,"EPHEMERIS_TYPE":0,"CLASSIFICATION_TYPE":"U","NORAD_CAT_ID":67299,"ELEMENT_SET_NO":999,"REV_AT_EPOCH":1083,"BSTAR":0.0027633805,"MEAN_MOTION_DOT":0.0008101,"MEAN_MOTION_DDOT":0}]
